STARLINK-30372          
1 57789U 23134U   26068.07043306 -.00000125  00000+0  49857-5 0  9990
2 57789  43.0069  81.8748 0002165 274.4128  85.6476 15.27591071140771
TEVEL2-6                
1 63215U 25052F   26068.64958975  .00021046  00000+0  70909-3 0  9996
2 63215  97.4016 325.0381 0004769  95.6604 264.5181 15.30760889 54861
